{
  "type": "FeatureCollection",
  "features": [
    {
      "type": "Feature",
      "properties": {
        "norad_id": 37836,
        "name": "EUTELSAT 16A",
        "group": "eutelsat",
        "lat": -0.06702233393964434,
        "lon": -119.4820374488087,
        "alt_km": 35766.220446521176,
        "timestamp": "2025-12-26T08:37:54.241205+00:00",
        "meta_object_name": "EUTELSAT 16A",
        "meta_object_id": "2011-057A",
        "meta_epoch": "2025-12-25T22:39:38.763360",
        "meta_mean_motion": 1.00271493,
        "meta_eccentricity": 0.0005834,
        "meta_inclination": 0.0556,
        "meta_ra_of_asc_node": 351.2624,
        "meta_arg_of_pericenter": 285.5577,
        "meta_mean_anomaly": 173.7711,
        "meta_ephemeris_type": 0,
        "meta_classification_type": "U",
        "meta_norad_cat_id": 37836,
        "meta_element_set_no": 999,
        "meta_rev_at_epoch": 559,
        "meta_bstar": 0,
        "meta_mean_motion_dot": 1.25e-06,
        "meta_mean_motion_ddot": 0,
        "tle_line1": "1 37836U 11057A   25359.94419865  .00000125  00000+0  00000+0 0  9997",
        "tle_line2": "2 37836   0.0556 351.2624 0005834 285.5577 173.7711  1.00271493  5590"
      },
      "geometry": {
        "type": "Point",
        "coordinates": [
          -119.4820374488087,
          -0.06702233393964434
        ]
      }
    },
    {
      "type": "Feature",
      "properties": {
        "norad_id": 38992,
        "name": "EUTELSAT 21B",
        "group": "eutelsat",
        "lat": -0.07887005271621599,
        "lon": -113.86985894557694,
        "alt_km": 35774.87883183737,
        "timestamp": "2025-12-26T08:37:54.241217+00:00",
        "meta_object_name": "EUTELSAT 21B",
        "meta_object_id": "2012-062B",
        "meta_epoch": "2025-12-26T02:51:53.978400",
        "meta_mean_motion": 1.00271578,
        "meta_eccentricity": 0.0003237,
        "meta_inclination": 0.0653,
        "meta_ra_of_asc_node": 352.0891,
        "meta_arg_of_pericenter": 288.9417,
        "meta_mean_anomaly": 238.3901,
        "meta_ephemeris_type": 0,
        "meta_classification_type": "U",
        "meta_norad_cat_id": 38992,
        "meta_element_set_no": 999,
        "meta_rev_at_epoch": 4809,
        "meta_bstar": 0,
        "meta_mean_motion_dot": 1.52e-06,
        "meta_mean_motion_ddot": 0,
        "tle_line1": "1 38992U 12062B   25360.11937475  .00000152  00000+0  00000+0 0  9991",
        "tle_line2": "2 38992   0.0653 352.0891 0003237 288.9417 238.3901  1.00271578 48097"
      },
      "geometry": {
        "type": "Point",
        "coordinates": [
          -113.86985894557694,
          -0.07887005271621599
        ]
      }
    },
    {
      "type": "Feature",
      "properties": {
        "norad_id": 39020,
        "name": "EUTELSAT 70B",
        "group": "eutelsat",
        "lat": -0.06799740058931601,
        "lon": -64.89932052004141,
        "alt_km": 35772.34121456149,
        "timestamp": "2025-12-26T08:37:54.241230+00:00",
        "meta_object_name": "EUTELSAT 70B",
        "meta_object_id": "2012-069A",
        "meta_epoch": "2025-12-26T02:10:38.891424",
        "meta_mean_motion": 1.00271991,
        "meta_eccentricity": 0.0004161,
        "meta_inclination": 0.0615,
        "meta_ra_of_asc_node": 349.9122,
        "meta_arg_of_pericenter": 266.0693,
        "meta_mean_anomaly": 302.0171,
        "meta_ephemeris_type": 0,
        "meta_classification_type": "U",
        "meta_norad_cat_id": 39020,
        "meta_element_set_no": 999,
        "meta_rev_at_epoch": 4777,
        "meta_bstar": 0,
        "meta_mean_motion_dot": -2.2e-07,
        "meta_mean_motion_ddot": 0,
        "tle_line1": "1 39020U 12069A   25360.09072791 -.00000022  00000+0  00000+0 0  9996",
        "tle_line2": "2 39020   0.0615 349.9122 0004161 266.0693 302.0171  1.00271991 47771"
      },
      "geometry": {
        "type": "Point",
        "coordinates": [
          -64.89932052004141,
          -0.06799740058931601
        ]
      }
    },
    {
      "type": "Feature",
      "properties": {
        "norad_id": 39122,
        "name": "EUTELSAT 117 WEST A",
        "group": "eutelsat",
        "lat": 0.025199102328898028,
        "lon": 107.77098589542662,
        "alt_km": 35798.09264512014,
        "timestamp": "2025-12-26T08:37:54.241242+00:00",
        "meta_object_name": "EUTELSAT 117 WEST A",
        "meta_object_id": "2013-012A",
        "meta_epoch": "2025-12-26T04:39:38.472192",
        "meta_mean_motion": 1.00270803,
        "meta_eccentricity": 0.000281,
        "meta_inclination": 0.0164,
        "meta_ra_of_asc_node": 327.3553,
        "meta_arg_of_pericenter": 311.2104,
        "meta_mean_anomaly": 129.4894,
        "meta_ephemeris_type": 0,
        "meta_classification_type": "U",
        "meta_norad_cat_id": 39122,
        "meta_element_set_no": 999,
        "meta_rev_at_epoch": 4669,
        "meta_bstar": 0,
        "meta_mean_motion_dot": 9e-08,
        "meta_mean_motion_ddot": 0,
        "tle_line1": "1 39122U 13012A   25360.19419528  .00000009  00000+0  00000+0 0  9996",
        "tle_line2": "2 39122   0.0164 327.3553 0002810 311.2104 129.4894  1.00270803 46694"
      },
      "geometry": {
        "type": "Point",
        "coordinates": [
          107.77098589542662,
          0.025199102328898028
        ]
      }
    },
    {
      "type": "Feature",
      "properties": {
        "norad_id": 39163,
        "name": "EUTELSAT 7B",
        "group": "eutelsat",
        "lat": -0.055762493671075025,
        "lon": -128.4852227261137,
        "alt_km": 35786.251895721776,
        "timestamp": "2025-12-26T08:37:54.241255+00:00",
        "meta_object_name": "EUTELSAT 7B",
        "meta_object_id": "2013-022A",
        "meta_epoch": "2025-12-25T22:01:38.543808",
        "meta_mean_motion": 1.00271769,
        "meta_eccentricity": 0.000467,
        "meta_inclination": 0.0662,
        "meta_ra_of_asc_node": 11.1049,
        "meta_arg_of_pericenter": 311.2066,
        "meta_mean_anomaly": 109.7628,
        "meta_ephemeris_type": 0,
        "meta_classification_type": "U",
        "meta_norad_cat_id": 39163,
        "meta_element_set_no": 999,
        "meta_rev_at_epoch": 4621,
        "meta_bstar": 0,
        "meta_mean_motion_dot": 7e-07,
        "meta_mean_motion_ddot": 0,
        "tle_line1": "1 39163U 13022A   25359.91780722  .00000070  00000+0  00000+0 0  9995",
        "tle_line2": "2 39163   0.0662  11.1049 0004670 311.2066 109.7628  1.00271769 46219"
      },
      "geometry": {
        "type": "Point",
        "coordinates": [
          -128.4852227261137,
          -0.055762493671075025
        ]
      }
    },
    {
      "type": "Feature",
      "properties": {
        "norad_id": 39612,
        "name": "EXPRESS-AT1",
        "group": "eutelsat",
        "lat": -0.012512067285207429,
        "lon": -79.40038819377708,
        "alt_km": 35789.42074959641,
        "timestamp": "2025-12-26T08:37:54.241266+00:00",
        "meta_object_name": "EXPRESS-AT1",
        "meta_object_id": "2014-010A",
        "meta_epoch": "2025-12-26T02:18:38.819232",
        "meta_mean_motion": 1.00275434,
        "meta_eccentricity": 0.0001543,
        "meta_inclination": 0.0175,
        "meta_ra_of_asc_node": 279.6656,
        "meta_arg_of_pericenter": 228.7445,
        "meta_mean_anomaly": 37.1062,
        "meta_ephemeris_type": 0,
        "meta_classification_type": "U",
        "meta_norad_cat_id": 39612,
        "meta_element_set_no": 999,
        "meta_rev_at_epoch": 4308,
        "meta_bstar": 0,
        "meta_mean_motion_dot": 1e-06,
        "meta_mean_motion_ddot": 0,
        "tle_line1": "1 39612U 14010A   25360.09628263  .00000100  00000+0  00000+0 0  9998",
        "tle_line2": "2 39612   0.0175 279.6656 0001543 228.7445  37.1062  1.00275434 43082"
      },
      "geometry": {
        "type": "Point",
        "coordinates": [
          -79.40038819377708,
          -0.012512067285207429
        ]
      }
    },
    {
      "type": "Feature",
      "properties": {
        "norad_id": 39613,
        "name": "EXPRESS-AT2",
        "group": "eutelsat",
        "lat": 0.009276727147707586,
        "lon": 4.455375524522782,
        "alt_km": 35786.192635707506,
        "timestamp": "2025-12-26T08:37:54.241278+00:00",
        "meta_object_name": "EXPRESS-AT2",
        "meta_object_id": "2014-010B",
        "meta_epoch": "2025-12-26T04:37:51.749184",
        "meta_mean_motion": 1.00271362,
        "meta_eccentricity": 0.0001642,
        "meta_inclination": 0.0126,
        "meta_ra_of_asc_node": 302.8434,
        "meta_arg_of_pericenter": 331.8203,
        "meta_mean_anomaly": 29.6055,
        "meta_ephemeris_type": 0,
        "meta_classification_type": "U",
        "meta_norad_cat_id": 39613,
        "meta_element_set_no": 999,
        "meta_rev_at_epoch": 4276,
        "meta_bstar": 0,
        "meta_mean_motion_dot": -2.59e-06,
        "meta_mean_motion_ddot": 0,
        "tle_line1": "1 39613U 14010B   25360.19296006 -.00000259  00000+0  00000+0 0  9992",
        "tle_line2": "2 39613   0.0126 302.8434 0001642 331.8203  29.6055  1.00271362 42768"
      },
      "geometry": {
        "type": "Point",
        "coordinates": [
          4.455375524522782,
          0.009276727147707586
        ]
      }
    }
  ]
}